0 COSMOS 1292
1 12641U 81074F   13281.13851550 -.00000002  00000-0  90052-4 0  8540
2 12641 074.0352 049.8403 0008852 259.2764 155.5431 12.48674221466695
0 COSMOS 1292
1 12641U 81074F   13283.14054406 -.00000025  00000-0 -62300-4 0  8550
2 12641 074.0356 047.1870 0008841 256.4551 154.9341 12.48674531466944
0 COSMOS 1292
1 12641U 81074F   13287.47014203 -.00000027  00000-0 -78165-4 0  8571
2 12641 074.0365 041.4495 0008839 250.5582 176.8672 12.48674375467486
0 COSMOS 1292
1 12641U 81074F   13289.80440902  .00000004  00000-0  13289-3 0  8588
2 12641 074.0367 038.3564 0008845 247.4392 229.5472 12.48674131467777
0 COSMOS 1292
1 12641U 81074F   13292.04593966  .00000016  00000-0  20973-3 0  8599
2 12641 074.0366 035.3862 0008823 244.2833 225.5305 12.48674209468054
0 COSMOS 1292
1 12641U 81074F   13294.19601703 -.00000003  00000-0  82448-4 0  8601
2 12641 074.0365 032.5371 0008803 241.2897 170.3844 12.48674413468324
